IRIDIUM 171             
1 43929U 19002H   25276.48294915  .00000014  00000+0 -22412-5 0  9994
2 43929  86.3923 101.1822 0001919  79.7956 280.3456 14.34217716352169
IRIDIUM 170             
1 43930U 19002J   25277.47065646  .00000236  00000+0  33509-4 0  9996
2 43930  86.6035 100.4985 0002306  86.6652 273.4829 14.72251190361636
IRIDIUM 167             
1 43931U 19002K   25277.45336697 -.00000027  00000+0 -16724-4 0  9992
2 43931  86.3914 100.5180 0002133  77.1145 283.0288 14.34217240352304
IRIDIUM 181             
1 56726U 23068S   25276.65707661  .00000925  00000+0  26903-3 0  9993
2 56726  86.4564 163.9842 0001716  73.9759 286.1631 14.43294054125437
IRIDIUM 177             
1 56727U 23068T   25276.50407762  .00001727  00000+0  22390-3 0  9994
2 56727  86.1909  90.6945 0002214  85.3817 274.7657 14.80221802128395
IRIDIUM 174             
1 56728U 23068U   25276.50672877  .00000963  00000+0  14889-3 0  9991
2 56728  86.6041 101.0233 0002717  99.8251 260.3273 14.72237677128253
IRIDIUM 178             
1 56729U 23068V   25276.35796004  .00003178  00000+0  41467-3 0  9997
2 56729  86.6541 132.7129 0002575  80.1670 279.9843 14.80245559128373
IRIDIUM 179             
1 56730U 23068W   25277.50181336  .00002392  00000+0  31126-3 0  9991
2 56730  86.6796 140.4424 0002526  70.4282 289.7212 14.80248077128544
